[{"OBJECT_NAME":"ONEWEB-0136","OBJECT_ID":"2020-100AA","EPOCH":"2025-10-22T00:38:22.592832","MEAN_MOTION":13.12445216,"ECCENTRICITY":0.0002146,"INCLINATION":87.8968,"RA_OF_ASC_NODE":37.9549,"ARG_OF_PERICENTER":107.9814,"MEAN_ANOMALY":252.1548,"EPHEMERIS_TYPE":0,"CLASSIFICATION_TYPE":"U","NORAD_CAT_ID":47282,"ELEMENT_SET_NO":999,"REV_AT_EPOCH":23342,"BSTAR":-0.00033431,"MEAN_MOTION_DOT":-1.08e-6,"MEAN_MOTION_DDOT":0},{"OBJECT_NAME":"ONEWEB-0137","OBJECT_ID":"2020-100AB","EPOCH":"2025-10-22T05:06:59.667840","MEAN_MOTION":13.12440873,"ECCENTRICITY":0.0001765,"INCLINATION":87.897,"RA_OF_ASC_NODE":37.9234,"ARG_OF_PERICENTER":92.5976,"MEAN_ANOMALY":267.5355,"EPHEMERIS_TYPE":0,"CLASSIFICATION_TYPE":"U","NORAD_CAT_ID":47283,"ELEMENT_SET_NO":999,"REV_AT_EPOCH":23335,"BSTAR":0.00080056,"MEAN_MOTION_DOT":3.01e-6,"MEAN_MOTION_DDOT":0},{"OBJECT_NAME":"ONEWEB-0138","OBJECT_ID":"2020-100AC","EPOCH":"2025-10-22T04:36:38.111328","MEAN_MOTION":13.12443575,"ECCENTRICITY":0.0001915,"INCLINATION":87.8966,"RA_OF_ASC_NODE":37.9374,"ARG_OF_PERICENTER":104.6538,"MEAN_ANOMALY":255.4803,"EPHEMERIS_TYPE":0,"CLASSIFICATION_TYPE":"U","NORAD_CAT_ID":47284,"ELEMENT_SET_NO":999,"REV_AT_EPOCH":23343,"BSTAR":0.00082758,"MEAN_MOTION_DOT":3.1e-6,"MEAN_MOTION_DDOT":0},{"OBJECT_NAME":"ONEWEB-0139","OBJECT_ID":"2020-100AD","EPOCH":"2025-10-22T00:03:31.712832","MEAN_MOTION":13.12440819,"ECCENTRICITY":0.0001747,"INCLINATION":87.8964,"RA_OF_ASC_NODE":37.9652,"ARG_OF_PERICENTER":101.9931,"MEAN_ANOMALY":258.1393,"EPHEMERIS_TYPE":0,"CLASSIFICATION_TYPE":"U","NORAD_CAT_ID":47285,"ELEMENT_SET_NO":999,"REV_AT_EPOCH":23348,"BSTAR":-0.001027,"MEAN_MOTION_DOT":-3.57e-6,"MEAN_MOTION_DDOT":0},{"OBJECT_NAME":"ONEWEB-0140","OBJECT_ID":"2020-100AE","EPOCH":"2025-10-22T04:27:17.193888","MEAN_MOTION":13.12444953,"ECCENTRICITY":0.0001857,"INCLINATION":87.8967,"RA_OF_ASC_NODE":37.9145,"ARG_OF_PERICENTER":103.6518,"MEAN_ANOMALY":256.4817,"EPHEMERIS_TYPE":0,"CLASSIFICATION_TYPE":"U","NORAD_CAT_ID":47286,"ELEMENT_SET_NO":999,"REV_AT_EPOCH":23347,"BSTAR":0.00053877,"MEAN_MOTION_DOT":2.07e-6,"MEAN_MOTION_DDOT":0},{"OBJECT_NAME":"ONEWEB-0141","OBJECT_ID":"2020-100AF","EPOCH":"2025-10-22T00:03:08.408160","MEAN_MOTION":13.12440539,"ECCENTRICITY":0.0001748,"INCLINATION":87.8961,"RA_OF_ASC_NODE":37.9634,"ARG_OF_PERICENTER":90.0922,"MEAN_ANOMALY":270.0407,"EPHEMERIS_TYPE":0,"CLASSIFICATION_TYPE":"U","NORAD_CAT_ID":47287,"ELEMENT_SET_NO":999,"REV_AT_EPOCH":23343,"BSTAR":-0.00096128,"MEAN_MOTION_DOT":-3.33e-6,"MEAN_MOTION_DDOT":0},{"OBJECT_NAME":"ONEWEB-0142","OBJECT_ID":"2020-100AG","EPOCH":"2025-10-21T23:47:10.722912","MEAN_MOTION":13.12443726,"ECCENTRICITY":0.0001982,"INCLINATION":87.8967,"RA_OF_ASC_NODE":37.9856,"ARG_OF_PERICENTER":91.7226,"MEAN_ANOMALY":268.413,"EPHEMERIS_TYPE":0,"CLASSIFICATION_TYPE":"U","NORAD_CAT_ID":47288,"ELEMENT_SET_NO":999,"REV_AT_EPOCH":23342,"BSTAR":0.00013877,"MEAN_MOTION_DOT":6.3e-7,"MEAN_MOTION_DDOT":0},{"OBJECT_NAME":"ONEWEB-0143","OBJECT_ID":"2020-100AH","EPOCH":"2025-10-22T00:00:59.919264","MEAN_MOTION":13.12442257,"ECCENTRICITY":0.0001663,"INCLINATION":87.897,"RA_OF_ASC_NODE":37.9796,"ARG_OF_PERICENTER":101.8296,"MEAN_ANOMALY":258.3019,"EPHEMERIS_TYPE":0,"CLASSIFICATION_TYPE":"U","NORAD_CAT_ID":47289,"ELEMENT_SET_NO":999,"REV_AT_EPOCH":23340,"BSTAR":-0.00077288,"MEAN_MOTION_DOT":-2.65e-6,"MEAN_MOTION_DDOT":0},{"OBJECT_NAME":"ONEWEB-0144","OBJECT_ID":"2020-100AJ","EPOCH":"2025-10-22T01:11:06.583200","MEAN_MOTION":13.12447305,"ECCENTRICITY":0.0002082,"INCLINATION":87.8959,"RA_OF_ASC_NODE":37.942,"ARG_OF_PERICENTER":100.3181,"MEAN_ANOMALY":259.8183,"EPHEMERIS_TYPE":0,"CLASSIFICATION_TYPE":"U","NORAD_CAT_ID":47290,"ELEMENT_SET_NO":999,"REV_AT_EPOCH":23333,"BSTAR":0.0013487,"MEAN_MOTION_DOT":4.98e-6,"MEAN_MOTION_DDOT":0},{"OBJECT_NAME":"ONEWEB-0145","OBJECT_ID":"2020-100AK","EPOCH":"2025-10-22T00:29:01.828320","MEAN_MOTION":13.12443711,"ECCENTRICITY":0.000181,"INCLINATION":87.897,"RA_OF_ASC_NODE":37.9821,"ARG_OF_PERICENTER":101.5798,"MEAN_ANOMALY":258.5534,"EPHEMERIS_TYPE":0,"CLASSIFICATION_TYPE":"U","NORAD_CAT_ID":47291,"ELEMENT_SET_NO":999,"REV_AT_EPOCH":23352,"BSTAR":-0.00096391,"MEAN_MOTION_DOT":-3.34e-6,"MEAN_MOTION_DDOT":0},{"OBJECT_NAME":"ONEWEB-0146","OBJECT_ID":"2020-100AL","EPOCH":"2025-10-22T00:24:21.352320","MEAN_MOTION":13.12444233,"ECCENTRICITY":0.0001411,"INCLINATION":87.8968,"RA_OF_ASC_NODE":37.9696,"ARG_OF_PERICENTER":108.4797,"MEAN_ANOMALY":251.6485,"EPHEMERIS_TYPE":0,"CLASSIFICATION_TYPE":"U","NORAD_CAT_ID":47292,"ELEMENT_SET_NO":999,"REV_AT_EPOCH":23343,"BSTAR":-0.00096866,"MEAN_MOTION_DOT":-3.36e-6,"MEAN_MOTION_DDOT":0},{"OBJECT_NAME":"ONEWEB-0147","OBJECT_ID":"2020-100AM","EPOCH":"2025-10-21T23:35:18.838752","MEAN_MOTION":13.12440953,"ECCENTRICITY":0.0001947,"INCLINATION":87.8968,"RA_OF_ASC_NODE":37.9545,"ARG_OF_PERICENTER":108.0262,"MEAN_ANOMALY":252.1079,"EPHEMERIS_TYPE":0,"CLASSIFICATION_TYPE":"U","NORAD_CAT_ID":47293,"ELEMENT_SET_NO":999,"REV_AT_EPOCH":23332,"BSTAR":0.00082064,"MEAN_MOTION_DOT":3.08e-6,"MEAN_MOTION_DDOT":0},{"OBJECT_NAME":"ONEWEB-0115","OBJECT_ID":"2021-025A","EPOCH":"2025-10-22T04:43:32.161728","MEAN_MOTION":13.13471656,"ECCENTRICITY":0.0001778,"INCLINATION":87.9047,"RA_OF_ASC_NODE":7.5087,"ARG_OF_PERICENTER":100.8382,"MEAN_ANOMALY":259.2947,"EPHEMERIS_TYPE":0,"CLASSIFICATION_TYPE":"U","NORAD_CAT_ID":48042,"ELEMENT_SET_NO":999,"REV_AT_EPOCH":22235,"BSTAR":0.0012531,"MEAN_MOTION_DOT":4.7e-6,"MEAN_MOTION_DDOT":0},{"OBJECT_NAME":"ONEWEB-0152","OBJECT_ID":"2021-025B","EPOCH":"2025-10-22T05:03:03.038976","MEAN_MOTION":13.13470384,"ECCENTRICITY":0.000174,"INCLINATION":87.9037,"RA_OF_ASC_NODE":7.5181,"ARG_OF_PERICENTER":103.9041,"MEAN_ANOMALY":256.2281,"EPHEMERIS_TYPE":0,"CLASSIFICATION_TYPE":"U","NORAD_CAT_ID":48043,"ELEMENT_SET_NO":999,"REV_AT_EPOCH":22231,"BSTAR":0.00053155,"MEAN_MOTION_DOT":2.07e-6,"MEAN_MOTION_DDOT":0},{"OBJECT_NAME":"ONEWEB-0153","OBJECT_ID":"2021-025C","EPOCH":"2025-10-22T04:31:21.926208","MEAN_MOTION":13.13470985,"ECCENTRICITY":0.0001858,"INCLINATION":87.9042,"RA_OF_ASC_NODE":7.5241,"ARG_OF_PERICENTER":97.7011,"MEAN_ANOMALY":262.4329,"EPHEMERIS_TYPE":0,"CLASSIFICATION_TYPE":"U","NORAD_CAT_ID":48044,"ELEMENT_SET_NO":999,"REV_AT_EPOCH":22230,"BSTAR":0.0011293,"MEAN_MOTION_DOT":4.25e-6,"MEAN_MOTION_DDOT":0},{"OBJECT_NAME":"ONEWEB-0154","OBJECT_ID":"2021-025D","EPOCH":"2025-10-22T04:26:28.034016","MEAN_MOTION":13.13472752,"ECCENTRICITY":0.0001855,"INCLINATION":87.9043,"RA_OF_ASC_NODE":7.5212,"ARG_OF_PERICENTER":103.1807,"MEAN_ANOMALY":256.9529,"EPHEMERIS_TYPE":0,"CLASSIFICATION_TYPE":"U","NORAD_CAT_ID":48045,"ELEMENT_SET_NO":999,"REV_AT_EPOCH":22226,"BSTAR":0.00072328,"MEAN_MOTION_DOT":2.77e-6,"MEAN_MOTION_DDOT":0},{"OBJECT_NAME":"ONEWEB-0116","OBJECT_ID":"2021-025E","EPOCH":"2025-10-22T03:32:50.930880","MEAN_MOTION":13.1347082,"ECCENTRICITY":0.0001695,"INCLINATION":87.9046,"RA_OF_ASC_NODE":7.5116,"ARG_OF_PERICENTER":101.6906,"MEAN_ANOMALY":258.4413,"EPHEMERIS_TYPE":0,"CLASSIFICATION_TYPE":"U","NORAD_CAT_ID":48046,"ELEMENT_SET_NO":999,"REV_AT_EPOCH":22240,"BSTAR":-0.00046301,"MEAN_MOTION_DOT":-1.56e-6,"MEAN_MOTION_DDOT":0},{"OBJECT_NAME":"ONEWEB-0150","OBJECT_ID":"2021-025F","EPOCH":"2025-10-22T04:48:25.588224","MEAN_MOTION":13.13471228,"ECCENTRICITY":0.0001771,"INCLINATION":87.9047,"RA_OF_ASC_NODE":7.4965,"ARG_OF_PERICENTER":93.6948,"MEAN_ANOMALY":266.4384,"EPHEMERIS_TYPE":0,"CLASSIFICATION_TYPE":"U","NORAD_CAT_ID":48047,"ELEMENT_SET_NO":999,"REV_AT_EPOCH":22230,"BSTAR":0.0009682,"MEAN_MOTION_DOT":3.66e-6,"MEAN_MOTION_DDOT":0},{"OBJECT_NAME":"ONEWEB-0107","OBJECT_ID":"2021-025G","EPOCH":"2025-10-22T04:50:50.381664","MEAN_MOTION":13.13468911,"ECCENTRICITY":0.0002091,"INCLINATION":87.9047,"RA_OF_ASC_NODE":7.4935,"ARG_OF_PERICENTER":96.469,"MEAN_ANOMALY":263.6678,"EPHEMERIS_TYPE":0,"CLASSIFICATION_TYPE":"U","NORAD_CAT_ID":48048,"ELEMENT_SET_NO":999,"REV_AT_EPOCH":22228,"BSTAR":0.00015489,"MEAN_MOTION_DOT":6.9e-7,"MEAN_MOTION_DDOT":0},{"OBJECT_NAME":"ONEWEB-0101","OBJECT_ID":"2021-025H","EPOCH":"2025-10-22T03:57:14.495040","MEAN_MOTION":13.13471406,"ECCENTRICITY":0.000197,"INCLINATION":87.9037,"RA_OF_ASC_NODE":7.5375,"ARG_OF_PERICENTER":102.2157,"MEAN_ANOMALY":257.9193,"EPHEMERIS_TYPE":0,"CLASSIFICATION_TYPE":"U","NORAD_CAT_ID":48049,"ELEMENT_SET_NO":999,"REV_AT_EPOCH":22225,"BSTAR":-0.00060134,"MEAN_MOTION_DOT":-2.07e-6,"MEAN_MOTION_DDOT":0},{"OBJECT_NAME":"ONEWEB-0113","OBJECT_ID":"2021-025J","EPOCH":"2025-10-22T04:49:46.622784","MEAN_MOTION":13.13430591,"ECCENTRICITY":0.0004794,"INCLINATION":87.9039,"RA_OF_ASC_NODE":7.4659,"ARG_OF_PERICENTER":61.4564,"MEAN_ANOMALY":298.7047,"EPHEMERIS_TYPE":0,"CLASSIFICATION_TYPE":"U","NORAD_CAT_ID":48050,"ELEMENT_SET_NO":999,"REV_AT_EPOCH":22235,"BSTAR":0.29207,"MEAN_MOTION_DOT":0.00107873,"MEAN_MOTION_DDOT":0},{"OBJECT_NAME":"ONEWEB-0112","OBJECT_ID":"2021-025K","EPOCH":"2025-10-22T04:58:10.612128","MEAN_MOTION":13.13471462,"ECCENTRICITY":0.0001798,"INCLINATION":87.9047,"RA_OF_ASC_NODE":7.4894,"ARG_OF_PERICENTER":97.5861,"MEAN_ANOMALY":262.5472,"EPHEMERIS_TYPE":0,"CLASSIFICATION_TYPE":"U","NORAD_CAT_ID":48051,"ELEMENT_SET_NO":999,"REV_AT_EPOCH":22235,"BSTAR":0.00065204,"MEAN_MOTION_DOT":2.51e-6,"MEAN_MOTION_DDOT":0},{"OBJECT_NAME":"ONEWEB-0156","OBJECT_ID":"2021-025L","EPOCH":"2025-10-22T03:20:40.303968","MEAN_MOTION":13.13470793,"ECCENTRICITY":0.0001884,"INCLINATION":87.9047,"RA_OF_ASC_NODE":7.5146,"ARG_OF_PERICENTER":96.2386,"MEAN_ANOMALY":263.8957,"EPHEMERIS_TYPE":0,"CLASSIFICATION_TYPE":"U","NORAD_CAT_ID":48052,"ELEMENT_SET_NO":999,"REV_AT_EPOCH":22232,"BSTAR":-0.0001197,"MEAN_MOTION_DOT":-3.1e-7,"MEAN_MOTION_DDOT":0},{"OBJECT_NAME":"ONEWEB-0161","OBJECT_ID":"2021-025M","EPOCH":"2025-10-22T04:33:48.595392","MEAN_MOTION":13.1347051,"ECCENTRICITY":0.0001973,"INCLINATION":87.9039,"RA_OF_ASC_NODE":7.523,"ARG_OF_PERICENTER":96.4104,"MEAN_ANOMALY":263.725,"EPHEMERIS_TYPE":0,"CLASSIFICATION_TYPE":"U","NORAD_CAT_ID":48053,"ELEMENT_SET_NO":999,"REV_AT_EPOCH":22226,"BSTAR":0.0012165,"MEAN_MOTION_DOT":4.57e-6,"MEAN_MOTION_DDOT":0}]
